IRIDIUM 119             
1 42959U 17061E   24076.34655706  .00000276  00000+0  91605-4 0  9998
2 42959  86.4027   9.1055 0002103  91.0078 269.1359 14.34216983336872
IRIDIUM 107             
1 42960U 17061F   24076.36558800  .00000214  00000+0  69431-4 0  9993
2 42960  86.4029   9.1137 0002418  89.7634 270.3838 14.34218173336899
IRIDIUM 132             
1 42961U 17061G   24075.32540140  .00000108  00000+0  31572-4 0  9994
2 42961  86.4027   9.5332 0002334  91.0972 269.0491 14.34217153336737
IRIDIUM 136             
1 42962U 17061H   24076.19433500  .00000254  00000+0  83528-4 0  9992
2 42962  86.4028   9.1733 0001949  89.7692 270.3727 14.34218147336870
IRIDIUM 139             
1 42963U 17061J   24076.34021597  .00000172  00000+0  54313-4 0  9998
2 42963  86.4029   9.1610 0002319  87.8292 272.3169 14.34218862336903
IRIDIUM 125             
1 42964U 17061K   24076.18799437  .00000180  00000+0  57255-4 0  9993
2 42964  86.4031   9.2705 0002186  96.2263 263.9182 14.34218673336896
IRIDIUM 135             
1 43070U 17083A   24076.37142627  .00000187  00000+0  59715-4 0  9990
2 43070  86.3946 305.9049 0002362  79.6272 280.5189 14.34217967326219
IRIDIUM 138             
1 43071U 17083B   24076.18749145  .00000068  00000+0  17314-4 0  9995
2 43071  86.3936 305.7106 0002056  94.1596 265.9834 14.34217475326175
